start=new Date('2021-11-29T00:00:00.000Z').valueOf();
sats=[{"SEMIMAJOR_AXIS":"6925.338","TLE_LINE2":"2 48407  53.0528 152.6869 0002138  86.8831 273.2403 15.06403284 31900","TIME_SYSTEM":"UTC","INCLINATION":"53.0528","OBJECT_NAME":"STARLINK-2595","EPOCH":"2021-11-28T21:58:44.421024","EPHEMERIS_TYPE":"0","CENTER_NAME":"EARTH","FILE":"3226391","DECAY_DATE":null,"TLE_LINE1":"1 48407U 21038BG  21332.91579191  .00000323  00000-0  40588-4 0  9997","MEAN_MOTION_DOT":"0.00000323","LAUNCH_DATE":"2021-05-04","COUNTRY_CODE":"US","ECCENTRICITY":"0.00021380","MEAN_ANOMALY":"273.2403","RA_OF_ASC_NODE":"152.6869","PERIAPSIS":"545.723","MEAN_MOTION_DDOT":"0.0000000000000","SITE":"AFETR","ARG_OF_PERICENTER":"86.8831","REF_FRAME":"TEME","BSTAR":"0.00004058800000","RCS_SIZE":"LARGE","REV_AT_EPOCH":"3190","ELEMENT_SET_NO":"999","GP_ID":"190685822","PERIOD":"95.592","MEAN_ELEMENT_THEORY":"SGP4","APOAPSIS":"548.684","MEAN_MOTION":"15.06403284","OBJECT_ID":"2021-038BG","CLASSIFICATION_TYPE":"U","OBJECT_TYPE":"PAYLOAD","NORAD_CAT_ID":"48407"},{"FILE":"3226391","DECAY_DATE":null,"TLE_LINE1":"1 48408U 21038BH  21332.91210358  .00000472  00000-0  50588-4 0  9991","MEAN_MOTION_DOT":"0.00000472","LAUNCH_DATE":"2021-05-04","COUNTRY_CODE":"US","ECCENTRICITY":"0.00016950","MEAN_ANOMALY":"270.9012","RA_OF_ASC_NODE":"152.6981","SEMIMAJOR_AXIS":"6925.339","TLE_LINE2":"2 48408  53.0551 152.6981 0001695  89.2171 270.9012 15.06403211 31903","TIME_SYSTEM":"UTC","INCLINATION":"53.0551","EPOCH":"2021-11-28T21:53:25.749312","OBJECT_NAME":"STARLINK-2592","EPHEMERIS_TYPE":"0","CENTER_NAME":"EARTH","PERIOD":"95.592","MEAN_ELEMENT_THEORY":"SGP4","APOAPSIS":"548.378","MEAN_MOTION":"15.06403211","OBJECT_ID":"2021-038BH","CLASSIFICATION_TYPE":"U","OBJECT_TYPE":"PAYLOAD","NORAD_CAT_ID":"48408","PERIAPSIS":"546.030","SITE":"AFETR","MEAN_MOTION_DDOT":"0.0000000000000","ARG_OF_PERICENTER":"89.2171","REF_FRAME":"TEME","BSTAR":"0.00005058800000","RCS_SIZE":"LARGE","REV_AT_EPOCH":"3190","ELEMENT_SET_NO":"999","GP_ID":"190686072"},{"TLE_LINE2":"2 48409  53.0542 158.1947 0001822  83.6064 276.5133 15.06397475 31830","SEMIMAJOR_AXIS":"6925.356","EPOCH":"2021-11-28T19:16:13.723968","OBJECT_NAME":"STARLINK-2596","INCLINATION":"53.0542","TIME_SYSTEM":"UTC","CENTER_NAME":"EARTH","EPHEMERIS_TYPE":"0","FILE":"3226391","TLE_LINE1":"1 48409U 21038BJ  21332.80293662  .00001244  00000-0  10238-3 0  9994","DECAY_DATE":null,"ECCENTRICITY":"0.00018220","COUNTRY_CODE":"US","MEAN_MOTION_DOT":"0.00001244","LAUNCH_DATE":"2021-05-04","RA_OF_ASC_NODE":"158.1947","MEAN_ANOMALY":"276.5133","REF_FRAME":"TEME","SITE":"AFETR","ARG_OF_PERICENTER":"83.6064","MEAN_MOTION_DDOT":"0.0000000000000","PERIAPSIS":"545.959","RCS_SIZE":"LARGE","BSTAR":"0.00010238000000","GP_ID":"190686324","ELEMENT_SET_NO":"999","REV_AT_EPOCH":"3183","APOAPSIS":"548.483","MEAN_ELEMENT_THEORY":"SGP4","PERIOD":"95.592","CLASSIFICATION_TYPE":"U","OBJECT_ID":"2021-038BJ","MEAN_MOTION":"15.06397475","OBJECT_TYPE":"PAYLOAD","NORAD_CAT_ID":"48409"},{"ELEMENT_SET_NO":"999","GP_ID":"190686573","REV_AT_EPOCH":"358","ARG_OF_PERICENTER":"84.1184","SITE":"AFETR","MEAN_MOTION_DDOT":"0.0000000000000","REF_FRAME":"TEME","PERIAPSIS":"546.253","RCS_SIZE":"LARGE","BSTAR":"0.00039219000000","OBJECT_TYPE":"PAYLOAD","NORAD_CAT_ID":"48410","APOAPSIS":"548.202","PERIOD":"95.592","MEAN_ELEMENT_THEORY":"SGP4","CLASSIFICATION_TYPE":"U","MEAN_MOTION":"15.06395516","OBJECT_ID":"2021-038BK","EPOCH":"2021-11-28T22:00:01.999584","OBJECT_NAME":"STARLINK-2563","TIME_SYSTEM":"UTC","INCLINATION":"53.0550","CENTER_NAME":"EARTH","EPHEMERIS_TYPE":"0","TLE_LINE2":"2 48410  53.0550 107.6784 0001407  84.1184 148.3180 15.06395516  3580","SEMIMAJOR_AXIS":"6925.362","COUNTRY_CODE":"US","ECCENTRICITY":"0.00014070","MEAN_MOTION_DOT":"0.00005564","LAUNCH_DATE":"2021-05-04","MEAN_ANOMALY":"148.3180","RA_OF_ASC_NODE":"107.6784","FILE":"3226391","TLE_LINE1":"1 48410U 21038BK  21332.91668981  .00005564  00000-0  39219-3 0  9997","DECAY_DATE":null},{"PERIOD":"95.593","MEAN_ELEMENT_THEORY":"SGP4","APOAPSIS":"547.943","OBJECT_ID":"2021-038BL","MEAN_MOTION":"15.06386608","CLASSIFICATION_TYPE":"U","OBJECT_TYPE":"PAYLOAD","NORAD_CAT_ID":"48411","PERIAPSIS":"546.566","REF_FRAME":"TEME","SITE":"AFETR","MEAN_MOTION_DDOT":"0.0000000000000","ARG_OF_PERICENTER":"92.0270","BSTAR":"0.00029669000000","RCS_SIZE":"LARGE","REV_AT_EPOCH":"360","GP_ID":"190685323","ELEMENT_SET_NO":"999","FILE":"3226391","DECAY_DATE":null,"TLE_LINE1":"1 48411U 21038BL  21332.91668981  .00004139  00000-0  29669-3 0  9993","LAUNCH_DATE":"2021-05-04","MEAN_MOTION_DOT":"0.00004139","ECCENTRICITY":"0.00009940","COUNTRY_CODE":"US","RA_OF_ASC_NODE":"102.6776","MEAN_ANOMALY":"47.9476","SEMIMAJOR_AXIS":"6925.390","TLE_LINE2":"2 48411  53.0540 102.6776 0000994  92.0270  47.9476 15.06386608  3607","INCLINATION":"53.0540","TIME_SYSTEM":"UTC","EPOCH":"2021-11-28T22:00:01.999584","OBJECT_NAME":"STARLINK-2505","EPHEMERIS_TYPE":"0","CENTER_NAME":"EARTH"},{"ECCENTRICITY":"0.00009240","COUNTRY_CODE":"US","MEAN_MOTION_DOT":"-0.00004761","LAUNCH_DATE":"2021-05-04","MEAN_ANOMALY":"174.7555","RA_OF_ASC_NODE":"102.6783","FILE":"3226391","TLE_LINE1":"1 48412U 21038BM  21332.91668981 -.00004761  00000-0 -30098-3 0  9995","DECAY_DATE":null,"OBJECT_NAME":"STARLINK-2581","EPOCH":"2021-11-28T22:00:01.999584","TIME_SYSTEM":"UTC","INCLINATION":"53.0545","CENTER_NAME":"EARTH","EPHEMERIS_TYPE":"0","TLE_LINE2":"2 48412  53.0545 102.6783 0000924  90.3209 174.7555 15.06396984  3590","SEMIMAJOR_AXIS":"6925.358","OBJECT_TYPE":"PAYLOAD","NORAD_CAT_ID":"48412","APOAPSIS":"547.863","PERIOD":"95.592","MEAN_ELEMENT_THEORY":"SGP4","CLASSIFICATION_TYPE":"U","MEAN_MOTION":"15.06396984","OBJECT_ID":"2021-038BM","ELEMENT_SET_NO":"999","GP_ID":"190686074","REV_AT_EPOCH":"359","ARG_OF_PERICENTER":"90.3209","SITE":"AFETR","MEAN_MOTION_DDOT":"0.0000000000000","REF_FRAME":"TEME","PERIAPSIS":"546.583","RCS_SIZE":"LARGE","BSTAR":"-0.00030098000000"},{"CLASSIFICATION_TYPE":"U","MEAN_MOTION":"15.06391072","OBJECT_ID":"2021-040A","APOAPSIS":"548.291","PERIOD":"95.593","MEAN_ELEMENT_THEORY":"SGP4","NORAD_CAT_ID":"48428","OBJECT_TYPE":"PAYLOAD","RCS_SIZE":"LARGE","BSTAR":"-0.00000092263000","ARG_OF_PERICENTER":"69.6651","SITE":"AFETR","MEAN_MOTION_DDOT":"0.0000000000000","REF_FRAME":"TEME","PERIAPSIS":"546.191","ELEMENT_SET_NO":"999","GP_ID":"190687736","REV_AT_EPOCH":"3114","TLE_LINE1":"1 48428U 21040A   21332.78448749 -.00000295  00000-0 -92263-6 0  9991","DECAY_DATE":null,"FILE":"3226391","MEAN_ANOMALY":"290.4501","RA_OF_ASC_NODE":"358.2758","COUNTRY_CODE":"US","ECCENTRICITY":"0.00015160","MEAN_MOTION_DOT":"-0.00000295","LAUNCH_DATE":"2021-05-09","TLE_LINE2":"2 48428  53.0562 358.2758 0001516  69.6651 290.4501 15.06391072 31147","SEMIMAJOR_AXIS":"6925.376","CENTER_NAME":"EARTH","EPHEMERIS_TYPE":"0","OBJECT_NAME":"STARLINK-2461","EPOCH":"2021-11-28T18:49:39.719136","TIME_SYSTEM":"UTC","INCLINATION":"53.0562"},{"ELEMENT_SET_NO":"999","GP_ID":"190687206","REV_AT_EPOCH":"359","RCS_SIZE":"LARGE","BSTAR":"0.00126110000000","SITE":"AFETR","MEAN_MOTION_DDOT":"0.0000000000000","ARG_OF_PERICENTER":"60.1634","REF_FRAME":"TEME","PERIAPSIS":"545.927","NORAD_CAT_ID":"48429","OBJECT_TYPE":"PAYLOAD","CLASSIFICATION_TYPE":"U","MEAN_MOTION":"15.06399341","OBJECT_ID":"2021-040B","APOAPSIS":"548.504","PERIOD":"95.592","MEAN_ELEMENT_THEORY":"SGP4","CENTER_NAME":"EARTH","EPHEMERIS_TYPE":"0","OBJECT_NAME":"STARLINK-2749","EPOCH":"2021-11-28T22:00:01.999584","TIME_SYSTEM":"UTC","INCLINATION":"53.0559","TLE_LINE2":"2 48429  53.0559 327.6812 0001860  60.1634 107.4283 15.06399341  3593","SEMIMAJOR_AXIS":"6925.351","MEAN_ANOMALY":"107.4283","RA_OF_ASC_NODE":"327.6812","COUNTRY_CODE":"US","ECCENTRICITY":"0.00018600","MEAN_MOTION_DOT":"0.00018552","LAUNCH_DATE":"2021-05-09","TLE_LINE1":"1 48429U 21040B   21332.91668981  .00018552  00000-0  12611-2 0  9997","DECAY_DATE":null,"FILE":"3226391"},{"FILE":"3226391","TLE_LINE1":"1 48430U 21040C   21332.91668981  .00045399  00000-0  30498-2 0  9991","DECAY_DATE":null,"COUNTRY_CODE":"US","ECCENTRICITY":"0.00018020","MEAN_MOTION_DOT":"0.00045399","LAUNCH_DATE":"2021-05-09","RA_OF_ASC_NODE":"327.6826","MEAN_ANOMALY":"287.4678","TLE_LINE2":"2 48430  53.0555 327.6826 0001802  60.1322 287.4678 15.06367279  3587","SEMIMAJOR_AXIS":"6925.449","EPOCH":"2021-11-28T22:00:01.999584","OBJECT_NAME":"STARLINK-2729","INCLINATION":"53.0555","TIME_SYSTEM":"UTC","CENTER_NAME":"EARTH","EPHEMERIS_TYPE":"0","APOAPSIS":"548.562","MEAN_ELEMENT_THEORY":"SGP4","PERIOD":"95.594","CLASSIFICATION_TYPE":"U","OBJECT_ID":"2021-040C","MEAN_MOTION":"15.06367279","OBJECT_TYPE":"PAYLOAD","NORAD_CAT_ID":"48430","REF_FRAME":"TEME","MEAN_MOTION_DDOT":"0.0000000000000","SITE":"AFETR","ARG_OF_PERICENTER":"60.1322","PERIAPSIS":"546.066","RCS_SIZE":"LARGE","BSTAR":"0.00304980000000","GP_ID":"190687076","ELEMENT_SET_NO":"999","REV_AT_EPOCH":"358"},{"REF_FRAME":"TEME","ARG_OF_PERICENTER":"49.4662","SITE":"AFETR","MEAN_MOTION_DDOT":"0.0000000000000","PERIAPSIS":"545.874","RCS_SIZE":"LARGE","BSTAR":"0.00254890000000","GP_ID":"190687354","ELEMENT_SET_NO":"999","REV_AT_EPOCH":"358","APOAPSIS":"548.666","PERIOD":"95.593","MEAN_ELEMENT_THEORY":"SGP4","CLASSIFICATION_TYPE":"U","OBJECT_ID":"2021-040D","MEAN_MOTION":"15.06381514","OBJECT_TYPE":"PAYLOAD","NORAD_CAT_ID":"48431","TLE_LINE2":"2 48431  53.0551 322.6785 0002016  49.4662 225.6308 15.06381514  3580","SEMIMAJOR_AXIS":"6925.405","OBJECT_NAME":"STARLINK-2700","EPOCH":"2021-11-28T22:00:01.999584","INCLINATION":"53.0551","TIME_SYSTEM":"UTC","CENTER_NAME":"EARTH","EPHEMERIS_TYPE":"0","FILE":"3226391","TLE_LINE1":"1 48431U 21040D   21332.91668981  .00037870  00000-0  25489-2 0  9991","DECAY_DATE":null,"ECCENTRICITY":"0.00020160","COUNTRY_CODE":"US","MEAN_MOTION_DOT":"0.00037870","LAUNCH_DATE":"2021-05-09","RA_OF_ASC_NODE":"322.6785","MEAN_ANOMALY":"225.6308"}];
